SL-16 R/B               
1 25400U 98043G   26055.82152891  .00000066  00000+0  46528-4 0  9999
2 25400  98.8231   9.0957 0010751  55.2481 304.9709 14.26046407437159
SL-16 R/B               
1 25407U 98045B   26055.50605661 -.00000093  00000+0 -22730-4 0  9992
2 25407  71.0105 209.2968 0006038  29.5832 330.5631 14.16191329425230
ISS (ZARYA)             
1 25544U 98067A   26055.86355973  .00009683  00000+0  18823-3 0  9994
2 25544  51.6318 135.7592 0008386 130.0533 230.1192 15.48271528554340
CZ-4B R/B               
1 25732U 99025C   26055.56405685  .00000038  00000+0  39091-4 0  9997
2 25732  98.6656 100.1549 0037470  24.3523 142.0500 14.18262458386304
OKEAN-O                 
1 25860U 99039A   26055.60634576  .00000661  00000+0  93632-4 0  9995
2 25860  97.9473 115.6289 0001616  76.0976 284.0416 14.80311830432455
SL-16 R/B               
1 25861U 99039B   26055.86867575  .00000518  00000+0  72519-4 0  9993
2 25861  97.9996 114.9826 0013584 301.8987  58.0903 14.81711084434967
DELTA 2 R/B             
1 25876U 99041E   26055.84057244  .00001642  00000+0  30191-3 0  9992
2 25876  51.7659 352.5959 0502247 310.4917  45.3254 14.11787317361212
HELIOS 1B               
1 25977U 99064A   26055.86714126  .00001564  00000+0  17840-3 0  9999
2 25977  98.1709 317.7329 0002458  92.2189 267.9308 14.87637380683355
TERRA                   
1 25994U 99068A   26055.85017064  .00000394  00000+0  89350-4 0  9994
2 25994  97.9622 109.7736 0001794 185.5191 290.6074 14.60998952393208
SL-16 R/B               
1 26070U 00006B   26055.58870326  .00000246  00000+0  14921-3 0  9999
2 26070  71.0019 125.3857 0017601 208.2016 151.8155 14.15820058346700
TITAN 4B R/B            
1 26474U 00047B   26055.90815551  .00003058  00000+0  19601-3 0  9991
2 26474  67.9884  76.4492 0037781  50.7653 309.6839 15.09428503390985
ENVISAT                 
1 27386U 02009A   26055.87968343  .00000128  00000+0  55327-4 0  9999
2 27386  98.3705   9.7838 0001370  86.1101 293.0758 14.39031501257334
