CCSDS_OMM_VERS = 2.0
CREATION_DATE  = 
ORIGINATOR     = 

OBJECT_NAME    = SL-16 R/B
OBJECT_ID      = 1998-043G
CENTER_NAME    = EARTH
REF_FRAME      = TEME
TIME_SYSTEM    = UTC
MEAN_ELEMENT_THEORY = SGP/SGP4

EPOCH          = 2026-02-24T19:43:00.097824
MEAN_MOTION    = 14.26046407
ECCENTRICITY   = .00107516
INCLINATION    = 98.8231
RA_OF_ASC_NODE = 9.0957
ARG_OF_PERICENTER = 55.2481
MEAN_ANOMALY   = 304.9709

EPHEMERIS_TYPE = 0
CLASSIFICATION_TYPE = U
NORAD_CAT_ID   = 25400
ELEMENT_SET_NO = 999
REV_AT_EPOCH   = 43715
BSTAR          = .46527942E-4
MEAN_MOTION_DOT = .66E-6
MEAN_MOTION_DDOT = 0

CCSDS_OMM_VERS = 2.0
CREATION_DATE  = 
ORIGINATOR     = 

OBJECT_NAME    = SL-16 R/B
OBJECT_ID      = 1998-045B
CENTER_NAME    = EARTH
REF_FRAME      = TEME
TIME_SYSTEM    = UTC
MEAN_ELEMENT_THEORY = SGP/SGP4

EPOCH          = 2026-02-24T12:08:43.291104
MEAN_MOTION    = 14.16191329
ECCENTRICITY   = .00060388
INCLINATION    = 71.0105
RA_OF_ASC_NODE = 209.2968
ARG_OF_PERICENTER = 29.5832
MEAN_ANOMALY   = 330.5631

EPHEMERIS_TYPE = 0
CLASSIFICATION_TYPE = U
NORAD_CAT_ID   = 25407
ELEMENT_SET_NO = 999
REV_AT_EPOCH   = 42523
BSTAR          = -.22730073E-4
MEAN_MOTION_DOT = -.93E-6
MEAN_MOTION_DDOT = 0

CCSDS_OMM_VERS = 2.0
CREATION_DATE  = 
ORIGINATOR     = 

OBJECT_NAME    = ISS (ZARYA)
OBJECT_ID      = 1998-067A
CENTER_NAME    = EARTH
REF_FRAME      = TEME
TIME_SYSTEM    = UTC
MEAN_ELEMENT_THEORY = SGP/SGP4

EPOCH          = 2026-02-24T20:43:31.560672
MEAN_MOTION    = 15.48271528
ECCENTRICITY   = .00083861
INCLINATION    = 51.6318
RA_OF_ASC_NODE = 135.7592
ARG_OF_PERICENTER = 130.0533
MEAN_ANOMALY   = 230.1192

EPHEMERIS_TYPE = 0
CLASSIFICATION_TYPE = U
NORAD_CAT_ID   = 25544
ELEMENT_SET_NO = 999
REV_AT_EPOCH   = 55434
BSTAR          = .18823051E-3
MEAN_MOTION_DOT = .9683E-4
MEAN_MOTION_DDOT = 0

CCSDS_OMM_VERS = 2.0
CREATION_DATE  = 
ORIGINATOR     = 

OBJECT_NAME    = CZ-4B R/B
OBJECT_ID      = 1999-025C
CENTER_NAME    = EARTH
REF_FRAME      = TEME
TIME_SYSTEM    = UTC
MEAN_ELEMENT_THEORY = SGP/SGP4

EPOCH          = 2026-02-24T13:32:14.511840
MEAN_MOTION    = 14.18262458
ECCENTRICITY   = .003747
INCLINATION    = 98.6656
RA_OF_ASC_NODE = 100.1549
ARG_OF_PERICENTER = 24.3523
MEAN_ANOMALY   = 142.0500

EPHEMERIS_TYPE = 0
CLASSIFICATION_TYPE = U
NORAD_CAT_ID   = 25732
ELEMENT_SET_NO = 999
REV_AT_EPOCH   = 38630
BSTAR          = .39091E-4
MEAN_MOTION_DOT = .38E-6
MEAN_MOTION_DDOT = 0

CCSDS_OMM_VERS = 2.0
CREATION_DATE  = 
ORIGINATOR     = 

OBJECT_NAME    = OKEAN-O
OBJECT_ID      = 1999-039A
CENTER_NAME    = EARTH
REF_FRAME      = TEME
TIME_SYSTEM    = UTC
MEAN_ELEMENT_THEORY = SGP/SGP4

EPOCH          = 2026-02-24T14:33:08.273664
MEAN_MOTION    = 14.80311830
ECCENTRICITY   = .0001616
INCLINATION    = 97.9473
RA_OF_ASC_NODE = 115.6289
ARG_OF_PERICENTER = 76.0976
MEAN_ANOMALY   = 284.0416

EPHEMERIS_TYPE = 0
CLASSIFICATION_TYPE = U
NORAD_CAT_ID   = 25860
ELEMENT_SET_NO = 999
REV_AT_EPOCH   = 43245
BSTAR          = .93632E-4
MEAN_MOTION_DOT = .661E-5
MEAN_MOTION_DDOT = 0

CCSDS_OMM_VERS = 2.0
CREATION_DATE  = 
ORIGINATOR     = 

OBJECT_NAME    = SL-16 R/B
OBJECT_ID      = 1999-039B
CENTER_NAME    = EARTH
REF_FRAME      = TEME
TIME_SYSTEM    = UTC
MEAN_ELEMENT_THEORY = SGP/SGP4

EPOCH          = 2026-02-24T20:50:53.584800
MEAN_MOTION    = 14.81711084
ECCENTRICITY   = .00135848
INCLINATION    = 97.9996
RA_OF_ASC_NODE = 114.9826
ARG_OF_PERICENTER = 301.8987
MEAN_ANOMALY   = 58.0903

EPHEMERIS_TYPE = 0
CLASSIFICATION_TYPE = U
NORAD_CAT_ID   = 25861
ELEMENT_SET_NO = 999
REV_AT_EPOCH   = 43496
BSTAR          = .72519194E-4
MEAN_MOTION_DOT = .518E-5
MEAN_MOTION_DDOT = 0

CCSDS_OMM_VERS = 2.0
CREATION_DATE  = 
ORIGINATOR     = 

OBJECT_NAME    = DELTA 2 R/B
OBJECT_ID      = 1999-041E
CENTER_NAME    = EARTH
REF_FRAME      = TEME
TIME_SYSTEM    = UTC
MEAN_ELEMENT_THEORY = SGP/SGP4

EPOCH          = 2026-02-24T20:10:25.458816
MEAN_MOTION    = 14.11787317
ECCENTRICITY   = .05022477
INCLINATION    = 51.7659
RA_OF_ASC_NODE = 352.5959
ARG_OF_PERICENTER = 310.4917
MEAN_ANOMALY   = 45.3254

EPHEMERIS_TYPE = 0
CLASSIFICATION_TYPE = U
NORAD_CAT_ID   = 25876
ELEMENT_SET_NO = 999
REV_AT_EPOCH   = 36121
BSTAR          = .30190538E-3
MEAN_MOTION_DOT = .1642E-4
MEAN_MOTION_DDOT = 0

CCSDS_OMM_VERS = 2.0
CREATION_DATE  = 
ORIGINATOR     = 

OBJECT_NAME    = HELIOS 1B
OBJECT_ID      = 1999-064A
CENTER_NAME    = EARTH
REF_FRAME      = TEME
TIME_SYSTEM    = UTC
MEAN_ELEMENT_THEORY = SGP/SGP4

EPOCH          = 2026-02-24T20:48:41.004864
MEAN_MOTION    = 14.87637380
ECCENTRICITY   = .00024588
INCLINATION    = 98.1709
RA_OF_ASC_NODE = 317.7329
ARG_OF_PERICENTER = 92.2189
MEAN_ANOMALY   = 267.9308

EPHEMERIS_TYPE = 0
CLASSIFICATION_TYPE = U
NORAD_CAT_ID   = 25977
ELEMENT_SET_NO = 999
REV_AT_EPOCH   = 68335
BSTAR          = .17839623E-3
MEAN_MOTION_DOT = .1564E-4
MEAN_MOTION_DDOT = 0

CCSDS_OMM_VERS = 2.0
CREATION_DATE  = 
ORIGINATOR     = 

OBJECT_NAME    = TERRA
OBJECT_ID      = 1999-068A
CENTER_NAME    = EARTH
REF_FRAME      = TEME
TIME_SYSTEM    = UTC
MEAN_ELEMENT_THEORY = SGP/SGP4

EPOCH          = 2026-02-24T20:24:14.743296
MEAN_MOTION    = 14.60998952
ECCENTRICITY   = .00017947
INCLINATION    = 97.9622
RA_OF_ASC_NODE = 109.7736
ARG_OF_PERICENTER = 185.5191
MEAN_ANOMALY   = 290.6074

EPHEMERIS_TYPE = 0
CLASSIFICATION_TYPE = U
NORAD_CAT_ID   = 25994
ELEMENT_SET_NO = 999
REV_AT_EPOCH   = 39320
BSTAR          = .89349524E-4
MEAN_MOTION_DOT = .394E-5
MEAN_MOTION_DDOT = 0

CCSDS_OMM_VERS = 2.0
CREATION_DATE  = 
ORIGINATOR     = 

OBJECT_NAME    = SL-16 R/B
OBJECT_ID      = 2000-006B
CENTER_NAME    = EARTH
REF_FRAME      = TEME
TIME_SYSTEM    = UTC
MEAN_ELEMENT_THEORY = SGP/SGP4

EPOCH          = 2026-02-24T14:07:43.961664
MEAN_MOTION    = 14.15820058
ECCENTRICITY   = .0017601
INCLINATION    = 71.0019
RA_OF_ASC_NODE = 125.3857
ARG_OF_PERICENTER = 208.2016
MEAN_ANOMALY   = 151.8155

EPHEMERIS_TYPE = 0
CLASSIFICATION_TYPE = U
NORAD_CAT_ID   = 26070
ELEMENT_SET_NO = 999
REV_AT_EPOCH   = 34670
BSTAR          = .14921E-3
MEAN_MOTION_DOT = .246E-5
MEAN_MOTION_DDOT = 0

CCSDS_OMM_VERS = 2.0
CREATION_DATE  = 
ORIGINATOR     = 

OBJECT_NAME    = TITAN 4B R/B
OBJECT_ID      = 2000-047B
CENTER_NAME    = EARTH
REF_FRAME      = TEME
TIME_SYSTEM    = UTC
MEAN_ELEMENT_THEORY = SGP/SGP4

EPOCH          = 2026-02-24T21:47:44.636064
MEAN_MOTION    = 15.09428503
ECCENTRICITY   = .00377814
INCLINATION    = 67.9884
RA_OF_ASC_NODE = 76.4492
ARG_OF_PERICENTER = 50.7653
MEAN_ANOMALY   = 309.6839

EPHEMERIS_TYPE = 0
CLASSIFICATION_TYPE = U
NORAD_CAT_ID   = 26474
ELEMENT_SET_NO = 999
REV_AT_EPOCH   = 39098
BSTAR          = .19601404E-3
MEAN_MOTION_DOT = .3058E-4
MEAN_MOTION_DDOT = 0

CCSDS_OMM_VERS = 2.0
CREATION_DATE  = 
ORIGINATOR     = 

OBJECT_NAME    = ENVISAT
OBJECT_ID      = 2002-009A
CENTER_NAME    = EARTH
REF_FRAME      = TEME
TIME_SYSTEM    = UTC
MEAN_ELEMENT_THEORY = SGP/SGP4

EPOCH          = 2026-02-24T21:06:44.648352
MEAN_MOTION    = 14.39031501
ECCENTRICITY   = .00013708
INCLINATION    = 98.3705
RA_OF_ASC_NODE = 9.7838
ARG_OF_PERICENTER = 86.1101
MEAN_ANOMALY   = 293.0758

EPHEMERIS_TYPE = 0
CLASSIFICATION_TYPE = U
NORAD_CAT_ID   = 27386
ELEMENT_SET_NO = 999
REV_AT_EPOCH   = 25733
BSTAR          = .5532728E-4
MEAN_MOTION_DOT = .128E-5
MEAN_MOTION_DDOT = 0

